OPTICUBE 04             
1 41851U 16067D   18276.49674396 -.00000461  00000-0 -35081-4 0  9995
2 41851  97.9220   5.9954 0009242 156.9181 203.2457 14.96710400103290
AEROCUBE 8D             
1 41852U 16067E   18276.47860380  .00000461  00000-0  45835-4 0  9990
2 41852  97.9236   5.8107 0010277 156.0680 204.1021 14.96560916103272
AEROCUBE 8C             
1 41853U 16067F   18276.49533939 -.00000318  00000-0 -22620-4 0  9990
2 41853  97.9232   5.7834 0010409 158.8805 201.2847 14.96522722103278
PROMETHEUS 2-1          
1 41854U 16067G   18276.29254779 -.00000139  00000-0 -68529-5 0  9991
2 41854  97.9240   5.6160 0010742 159.2118 200.9542 14.96659127103246
PROMETHEUS 2-3          
1 41855U 16067H   18276.96385906 -.00000185  00000-0 -10848-4 0  9994
2 41855  97.9240   6.3029 0010939 158.0838 202.0853 14.96657704103341
ITF-2                   
1 41932U 98067KU  18277.00616249  .00063061  00000-0  25518-3 0  9992
2 41932  51.6281 136.7141 0003281 231.4420 128.6290 15.85683925 97979
WASEDA-SAT3             
1 41933U 98067KV  18277.58233986  .02419071  12040-4  66267-3 0  9994
2 41933  51.6181 115.3716 0010390 276.5136  83.4702 16.27112382 98308
AOBA-VELOX 3            
1 41935U 98067KX  18277.06544608  .00175542  23701-4  37748-3 0  9993
2 41935  51.6292 126.4655 0004711 241.7675 118.2859 15.98111106 98210
INS-1B                  
1 41954U 17008G   18276.65304575  .00001111  00000-0  49815-4 0  9993
2 41954  97.4354 339.6598 0008631 342.6764  17.4177 15.23277810 90518
BGUSAT                  
1 41999U 17008BD  18276.63930266  .00001910  00000-0  79380-4 0  9999
2 41999  97.4404 341.0448 0008083   1.4590 358.6669 15.25021203 89959
DIDO-2                  
1 42000U 17008BE  18276.84634992  .00000848  00000-0  38586-4 0  9995
2 42000  97.4369 340.3330 0008462   2.2992 357.8282 15.23404108 89949
PEASSS                  
1 42015U 17008BV  18276.17483560  .00001066  00000-0  46608-4 0  9997
2 42015  97.4369 340.2576 0006676  14.9293 345.2140 15.24252021 90363
AL-FARABI 1             
1 42016U 17008BW  18277.12048850  .00001314  00000-0  56003-4 0  9999
2 42016  97.4378 341.4789 0006426  12.1026 348.0365 15.24729366 90642
NAYIF-1 (EO-88)         
1 42017U 17008BX  18276.65357955  .00001307  00000-0  55656-4 0  9991
2 42017  97.4376 341.0230 0006458  13.9382 346.2033 15.24753622 90595
HAVELSAT                
1 42700U 98067LH  18277.07632739  .00046214  00000-0  26586-3 0  9992
2 42700  51.6297 155.3216 0001319 292.1211  67.9649 15.78242999 79171
CXBN-2                  
1 42704U 98067LM  18276.93946289  .00041476  00000-0  24461-3 0  9993
2 42704  51.6315 157.4474 0002325 193.3865 166.7074 15.77732592 79059
ICECUBE                 
1 42705U 98067LN  18276.06534946  .17607533  12691-4  36390-3 0  9998
2 42705  51.6425 140.2579 0007226 336.1768  24.0803 16.46477481 79261
PHOENIX                 
1 42706U 98067LP  18277.04874316  .00028059  00000-0  19676-3 0  9993
2 42706  51.6344 159.7032 0001542 177.6077 182.4929 15.73970129 79025
X-CUBESAT               
1 42707U 98067LQ  18277.05999485  .00053178  00000-0  28642-3 0  9993
2 42707  51.6303 154.3673 0002218 196.6414 163.4514 15.79644340 79084
QBEE50-LTU-OC           
1 42708U 98067LR  18276.70690374  .00041289  00000-0  24216-3 0  9993
2 42708  51.6306 158.1169 0001470 167.0212 193.0827 15.77860914 78964
ALTAIR PATHFINDER       
1 42711U 98067LS  18277.07425991  .00016543  00000-0  15460-3 0  9995
2 42711  51.6349 171.1846 0003162 211.3427 148.7381 15.67426791 78538
SHARC                   
1 42712U 98067LT  18277.08061924  .00031507  00000-0  26487-3 0  9997
2 42712  51.6356 172.0452 0002119 188.8862 171.2098 15.69585390 78766
ZA-AEROSAT              
1 42713U 98067LU  18277.04873964  .00028415  00000-0  21229-3 0  9992
2 42713  51.6332 163.4450 0002325 188.6784 171.4174 15.72472066 78635
CSUNSAT 1               
1 42715U 98067LW  18277.07219782  .00031201  00000-0  22160-3 0  9991
2 42715  51.6325 162.1194 0003455 202.4727 157.6121 15.73607774 78654
SPACECUBE               
1 42717U 98067LY  18277.05966987  .00042427  00000-0  24960-3 0  9999
2 42717  51.6260 156.6603 0000870 261.6692  98.4210 15.77779297 78096
HOOPOE                  
1 42718U 98067LZ  18276.69557698  .00064598  00000-0  28686-3 0  9996
2 42718  51.6265 152.6742 0001996 214.0122 146.0753 15.83733392 78110
NJUST-1                 
1 42722U 98067MB  18277.05781782  .00024605  00000-0  19529-3 0  9996
2 42722  51.6341 165.7965 0003303 272.6537  87.4083 15.71116177 77673
UNSW-ECO                
1 42723U 98067MC  18276.66740584  .00084516  00000-0  33051-3 0  9991
2 42723  51.6368 151.8471 0002640 239.2505 120.8240 15.86278910 77800
LILACSAT-1              
1 42725U 98067ME  18276.94166412  .00035706  00000-0  23398-3 0  9996
2 42725  51.6343 161.2363 0002272 256.8829 103.1917 15.75408359 77620
NSIGHT-1                
1 42726U 98067MF  18277.11289954  .00012252  00000-0  13520-3 0  9991
2 42726  51.6380 177.5448 0003826 278.5768  81.4793 15.63517915 77430
SNUSAT-1                
1 42727U 98067MG  18276.19422819  .00032918  00000-0  21740-3 0  9992
2 42727  51.6321 165.1670 0004390 227.0897 132.9734 15.75263403 77479
I-INSPIRE II            
1 42731U 98067ML  18277.04651734  .00108582  00000-0  39590-3 0  9995
2 42731  51.6323 148.2509 0004959 212.6870 147.3829 15.87599862 77661
POLYITAN-2-SAU          
1 42732U 98067MM  18276.70336714  .00044846  00000-0  24638-3 0  9995
2 42732  51.6317 157.2981 0004623 213.0620 147.0093 15.79270056 77511
SNUSAT-1B               
1 42733U 98067MN  18277.05302210  .00039730  00000-0  24682-3 0  9994
2 42733  51.6306 158.9265 0004450 220.1949 139.8723 15.76568891 77528
EXALTA-1                
1 42734U 98067MP  18277.06344992  .00125208  16847-4  41204-3 0  9994
2 42734  51.6234 146.7179 0004597 234.7123 125.3453 15.90288515 77635
BEEAGLESAT              
1 42736U 98067MR  18277.11261037  .00032608  00000-0  22623-3 0  9995
2 42736  51.6332 161.5942 0003191 265.1689  94.8946 15.74131686 77559
UCLSAT                  
1 42765U 17036A   18277.08470000  .00001069  00000-0  49648-4 0  9996
2 42765  97.3895 335.1249 0013149  59.5788 300.6746 15.22103501 71277
LITUANICASAT-2          
1 42768U 17036D   18276.57906667  .00001796  00000-0  81986-4 0  9993
2 42768  97.3916 334.1886 0016766  51.1313 309.1416 15.21777452 71044
AALTO-1                 
1 42775U 17036L   18277.58259584  .00000668  00000-0  33222-4 0  9999
2 42775  97.3885 334.9041 0015314  46.7596 313.4915 15.20919257 71120
URSA MAIOR              
1 42776U 17036M   18277.10242342  .00000762  00000-0  37385-4 0  9991
2 42776  97.3893 334.5083 0015192  48.4551 311.7985 15.21014041 71054
COMPASS 2               
1 42777U 17036N   18276.16995710  .00001555  00000-0  70861-4 0  9998
2 42777  97.3920 334.1710 0014127  54.5748 305.6805 15.22063283 70934
DIAMOND RED             
1 42783U 17036U   18277.11299776  .00000892  00000-0  42443-4 0  9998
2 42783  97.3895 334.9431 0013769  59.4289 300.8304 15.21673137 71076
PEGASUS                 
1 42784U 17036V   18277.46487176  .00001055  00000-0  49276-4 0  9993
2 42784  97.3897 335.3965 0013655  58.2623 301.9942 15.21902974 71130
DIAMOND GREEN           
1 42785U 17036W   18277.11174902  .00000854  00000-0  40763-4 0  9994
2 42785  97.3897 334.9584 0013672  60.0628 300.1964 15.21673199 71069
DIAMOND BLUE            
1 42786U 17036X   18276.58482674  .00000894  00000-0  42515-4 0  9994
2 42786  97.3898 334.4405 0013544  62.0010 298.2594 15.21673879 70984
NUDTSAT                 
1 42787U 17036Y   18276.81241855  .00001542  00000-0  69272-4 0  9995
2 42787  97.3907 335.0708 0013174  60.0445 300.2098 15.22583816 70893
SUCHAI                  
1 42788U 17036Z   18276.15245753  .00001280  00000-0  58621-4 0  9999
2 42788  97.3900 334.2546 0013325  62.2538 298.0048 15.22209505 71017
SKCUBE                  
1 42789U 17036AA  18276.28662452  .00001116  00000-0  51611-4 0  9993
2 42789  97.3898 334.3704 0013161  61.9438 298.3128 15.22153684 70954
VZLUSAT-1               
1 42790U 17036AB  18276.47189052  .00001481  00000-0  66645-4 0  9994
2 42790  97.3906 334.7423 0012779  61.5241 298.7281 15.22596439 70997
ROBUSTA-1B              
1 42792U 17036AD  18276.63911928  .00001172  00000-0  53806-4 0  9991
2 42792  97.3897 334.8020 0012727  61.8575 298.3946 15.22310782 71022
CICERO 6                
1 42793U 17036AE  18276.64721697  .00000940  00000-0  44026-4 0  9991
2 42793  97.3887 334.7627 0011935  63.0920 297.1534 15.22084780 71095
D-SAT                   
1 42794U 17036AF  18277.10531924  .00000170  00000-0  20605-4 0  9998
2 42794  97.5795 327.5781 0125414 279.8570  78.8509 14.90936356 69950
TOKI                    
1 42820U 98067MU  18276.17019455  .00028643  00000-0  20955-3 0  9999
2 42820  51.6329 169.5688 0002942 181.1871 178.9121 15.72961109 70828
MAZAALAI (NUMSAT-1)     
1 42822U 98067MW  18276.10037590  .00031872  00000-0  23697-3 0  9998
2 42822  51.6327 170.6135 0002974 186.5843 173.5117 15.72520266 70787
BRAC ONNESHA            
1 42823U 98067MX  18276.72210870  .00025972  00000-0  19215-3 0  9996
2 42823  51.6336 167.2891 0004003 218.9800 141.0910 15.72752657 70880
NIGERIAEDUSAT-1         
1 42824U 98067MY  18277.08210203  .00029726  00000-0  22218-3 0  9995
2 42824  51.6338 165.9674 0003939 222.0312 138.0384 15.72431138 70922
CORVUS BC2              
1 42846U 17042X   18277.26689015  .00000323  00000-0  37292-4 0  9995
2 42846  97.5854 176.1367 0009331 184.1977 175.9166 14.91863343 66636
CORVUS BC1              
1 42847U 17042Y   18276.70079023 -.00000025  00000-0  28465-5 0  9999
2 42847  97.5855 175.6572 0008928 185.0955 175.0174 14.91962311 66542
SILU-1 (SILKROAD 1)     
1 42903U 17021F   18277.04110951  .00037135  00000-0  21851-3 0  9994
2 42903  42.7773  26.3372 0014689 347.3443 186.6188 15.77366920 67084
